NORAD_CAT_ID,OBJECT_NAME,OBJECT_TYPE,EPOCH,MEAN_MOTION,ECCENTRICITY,INCLINATION,RA_OF_ASC_NODE,ARG_OF_PERICENTER,MEAN_ANOMALY,BSTAR,MEAN_MOTION_DOT,MEAN_MOTION_DDOT,TLE_LINE0,TLE_LINE1,TLE_LINE2,SEMIMAJOR_AXIS,PERIOD,APOGEE,PERIGEE,DECAYED
52298.0,STARLINK-3760,PAYLOAD,2023-04-19 09:29:21,15.08841572,0.0001272,53.2158,156.5247,87.0397,273.0741,7.7603e-05,9.47e-06,0.0,0 STARLINK-3760,1 52298U 22041AP  23109.39538505  .00000947  00000-0  77603-4 0  9995,2 52298  53.2158 156.5247 0001272  87.0397 273.0741 15.08841572 56408,6917.876,95.437,540.621,538.861,0.0
52298.0,STARLINK-3760,PAYLOAD,2023-04-19 20:37:03,15.08846481,0.0001818,53.2179,154.4437,54.5086,305.6076,0.00010336,1.358e-05,0.0,0 STARLINK-3760,1 52298U 22041AP  23109.85906329  .00001358  00000-0  10336-3 0  9995,2 52298  53.2179 154.4437 0001818  54.5086 305.6076 15.08846481 55269,6917.861,95.437,540.983,538.468,0.0
52298.0,STARLINK-3760,PAYLOAD,2023-04-20 09:20:08,15.08846398,0.000122,53.2149,152.0651,73.4898,286.6228,3.6414e-05,2.92e-06,0.0,0 STARLINK-3760,1 52298U 22041AP  23110.38898310  .00000292  00000-0  36414-4 0  9997,2 52298  53.2149 152.0651 0001220  73.4898 286.6228 15.08846398 55349,6917.861,95.437,540.57,538.882,0.0
52298.0,STARLINK-3760,PAYLOAD,2023-04-20 14:06:17,15.08850238,0.0001159,53.2152,151.1717,86.0336,274.0788,0.00012761,1.744e-05,0.0,0 STARLINK-3760,1 52298U 22041AP  23110.58769988  .00001744  00000-0  12761-3 0  9998,2 52298  53.2152 151.1717 0001159  86.0336 274.0788 15.08850238 56581,6917.849,95.437,540.516,538.912,0.0
52298.0,STARLINK-3760,PAYLOAD,2023-04-21 02:49:23,15.08834796,0.0001226,53.2152,148.7934,84.3289,275.7843,8.0467e-05,9.93e-06,0.0,0 STARLINK-3760,1 52298U 22041AP  23111.11762961  .00000993  00000-0  80467-4 0  9996,2 52298  53.2152 148.7934 0001226  84.3289 275.7843 15.08834796 56667,6917.896,95.438,540.609,538.913,0.0
52298.0,STARLINK-3760,PAYLOAD,2023-04-21 09:10:55,15.08838048,0.0001267,53.2151,147.6043,84.106,276.0076,0.00010079,1.316e-05,0.0,0 STARLINK-3760,1 52298U 22041AP  23111.38258916  .00001316  00000-0  10079-3 0  9996,2 52298  53.2151 147.6043 0001267  84.1060 276.0076 15.08838048 55491,6917.886,95.438,540.628,538.875,0.0
52298.0,STARLINK-3760,PAYLOAD,2023-04-21 13:57:04,15.08841305,0.0001209,53.2152,146.7116,84.5418,275.5712,0.00015308,2.149e-05,0.0,0 STARLINK-3760,1 52298U 22041AP  23111.58130779  .00002149  00000-0  15308-3 0  9999,2 52298  53.2152 146.7116 0001209  84.5418 275.5712 15.08841305 55525,6917.876,95.437,540.578,538.905,0.0
52298.0,STARLINK-3760,PAYLOAD,2023-04-22 12:12:28,15.08857586,0.0001252,53.2151,142.549,88.2167,271.8968,0.00051104,7.859e-05,0.0,0 STARLINK-3760,1 52298U 22041AP  23112.50866201  .00007859  00000-0  51104-3 0  9995,2 52298  53.2151 142.5490 0001252  88.2167 271.8968 15.08857586 55668,6917.827,95.436,540.558,538.826,0.0
52298.0,STARLINK-3760,PAYLOAD,2023-04-22 18:34:01,15.0884389,0.000185,53.2147,141.3585,73.4132,286.7063,0.00024882,3.675e-05,0.0,0 STARLINK-3760,1 52298U 22041AP  23112.77362781  .00003675  00000-0  24882-3 0  9993,2 52298  53.2147 141.3585 0001850  73.4132 286.7063 15.08843890 55706,6917.868,95.437,541.013,538.454,0.0
52298.0,STARLINK-3760,PAYLOAD,2023-04-23 12:03:15,15.08837895,0.0001064,53.2145,138.0881,95.5334,264.5779,-2.161e-05,-6.32e-06,0.0,0 STARLINK-3760,1 52298U 22041AP  23113.50226675 -.00000632  00000-0 -21610-4 0  9995,2 52298  53.2145 138.0881 0001064  95.5334 264.5779 15.08837895 57025,6917.887,95.438,540.488,539.016,0.0
52298.0,STARLINK-3760,PAYLOAD,2023-04-24 13:29:25,15.08879637,0.0001186,53.2152,133.3298,93.357,266.7558,0.0013232,0.00020856,0.0,0 STARLINK-3760,1 52298U 22041AP  23114.56209655  .00020856  00000-0  13232-2 0  9998,2 52298  53.2152 133.3298 0001186  93.3570 266.7558 15.08879637 55977,6917.759,95.435,540.445,538.804,0.0
52298.0,STARLINK-3760,PAYLOAD,2023-04-25 10:09:27,15.08826756,0.000114,53.2153,129.4654,69.0891,291.0223,-7.8781e-05,-1.541e-05,0.0,0 STARLINK-3760,1 52298U 22041AP  23115.42322983 -.00001541  00000-0 -78781-4 0  9998,2 52298  53.2153 129.4654 0001140  69.0891 291.0223 15.08826756 57310,6917.921,95.438,540.575,538.997,0.0
52298.0,STARLINK-3760,PAYLOAD,2023-04-26 06:49:28,15.08828924,0.0001177,53.2153,125.6,70.3907,289.7212,0.00024265,3.575e-05,0.0,0 STARLINK-3760,1 52298U 22041AP  23116.28435939  .00003575  00000-0  24265-3 0  9993,2 52298  53.2153 125.6000 0001177  70.3907 289.7212 15.08828924 56237,6917.914,95.438,540.593,538.965,0.0
52298.0,STARLINK-3760,PAYLOAD,2023-04-26 17:57:10,15.08834323,0.0001183,53.2155,123.5187,67.1512,292.9605,0.00040997,6.242e-05,0.0,0 STARLINK-3760,1 52298U 22041AP  23116.74804245  .00006242  00000-0  40997-3 0  9998,2 52298  53.2155 123.5187 0001183  67.1512 292.9605 15.08834323 56305,6917.898,95.438,540.581,538.944,0.0
52298.0,STARLINK-3760,PAYLOAD,2023-04-27 11:26:25,15.08848775,0.0001184,53.2153,120.2472,67.5414,292.5703,0.00053006,8.16e-05,0.0,0 STARLINK-3760,1 52298U 22041AP  23117.47668040  .00008160  00000-0  53006-3 0  9996,2 52298  53.2153 120.2472 0001184  67.5414 292.5703 15.08848775 56413,6917.854,95.437,540.538,538.899,0.0
52298.0,STARLINK-3760,PAYLOAD,2023-04-28 06:31:02,15.08859957,0.0001229,53.2157,116.6788,67.9583,292.1539,0.00049205,7.556e-05,0.0,0 STARLINK-3760,1 52298U 22041AP  23118.27155255  .00007556  00000-0  49205-3 0  9998,2 52298  53.2157 116.6788 0001229  67.9583 292.1539 15.08859957 57741,6917.819,95.436,540.535,538.834,0.0
52298.0,STARLINK-3760,PAYLOAD,2023-04-28 11:17:11,15.08863381,0.0001236,53.2157,115.7866,67.905,292.2074,0.00050187,7.713e-05,0.0,0 STARLINK-3760,1 52298U 22041AP  23118.47026950  .00007713  00000-0  50187-3 0  9995,2 52298  53.2157 115.7866 0001236  67.9050 292.2074 15.08863381 56565,6917.809,95.436,540.529,538.819,0.0
52298.0,STARLINK-3760,PAYLOAD,2023-04-29 03:11:02,15.08842846,0.0001118,53.2163,112.8129,91.424,268.688,-9.1576e-05,-1.745e-05,0.0,0 STARLINK-3760,1 52298U 22041AP  23119.13267139 -.00001745  00000-0 -91576-4 0  9994,2 52298  53.2163 112.8129 0001118  91.4240 268.6880 15.08842846 57874,6917.872,95.437,540.51,538.963,0.0
52298.0,STARLINK-3760,PAYLOAD,2023-04-29 11:07:58,15.08845182,0.0001201,53.216,111.3257,76.2492,283.8634,5.3436e-05,5.63e-06,0.0,0 STARLINK-3760,1 52298U 22041AP  23119.46387174  .00000563  00000-0  53436-4 0  9990,2 52298  53.2160 111.3257 0001201  76.2492 283.8634 15.08845182 56714,6917.865,95.437,540.56,538.899,0.0
52298.0,STARLINK-3760,PAYLOAD,2023-04-30 10:58:45,15.08849411,0.0001234,53.2155,106.8656,79.5267,280.5864,0.00018934,2.728e-05,0.0,0 STARLINK-3760,1 52298U 22041AP  23120.45746925  .00002728  00000-0  18934-3 0  9992,2 52298  53.2155 106.8656 0001234  79.5267 280.5864 15.08849411 58071,6917.852,95.437,540.57,538.863,0.0
52298.0,STARLINK-3760,PAYLOAD,2023-05-01 04:28:00,15.08831393,0.000134,53.2156,103.5949,85.0185,275.096,-3.7377e-05,-8.83e-06,0.0,0 STARLINK-3760,1 52298U 22041AP  23121.18611832 -.00000883  00000-0 -37377-4 0  9996,2 52298  53.2156 103.5949 0001340  85.0185 275.0960 15.08831393 58188,6917.907,95.438,540.699,538.845,0.0
52298.0,STARLINK-3760,PAYLOAD,2023-05-01 09:14:09,15.08839406,0.0001402,53.2162,102.7028,87.0024,273.1128,-2.0852e-05,-6.2e-06,0.0,0 STARLINK-3760,1 52298U 22041AP  23121.38483571 -.00000620  00000-0 -20852-4 0  9994,2 52298  53.2162 102.7028 0001402  87.0024 273.1128 15.08839406 57005,6917.882,95.438,540.717,538.777,0.0
52298.0,STARLINK-3760,PAYLOAD,2023-05-02 07:29:33,15.08842834,0.0001296,53.2164,98.5393,82.2497,277.8642,0.00011471,1.538e-05,0.0,0 STARLINK-3760,1 52298U 22041AP  23122.31219697  .00001538  00000-0  11471-3 0  9997,2 52298  53.2164  98.5393 0001296  82.2497 277.8642 15.08842834 57142,6917.872,95.437,540.633,538.84,0.0
52298.0,STARLINK-3760,PAYLOAD,2023-05-02 15:26:29,15.0884257,0.0001228,53.2165,97.0521,96.1775,263.9357,8.2304e-05,1.022e-05,0.0,0 STARLINK-3760,1 52298U 22041AP  23122.64339670  .00001022  00000-0  82304-4 0  9999,2 52298  53.2165  97.0521 0001228  96.1775 263.9357 15.08842570 58404,6917.873,95.437,540.587,538.888,0.0
52298.0,STARLINK-3760,PAYLOAD,2023-05-03 10:31:06,15.0884821,0.0001311,53.2165,93.4835,91.8078,268.3065,0.0002266,3.321e-05,0.0,0 STARLINK-3760,1 52298U 22041AP  23123.43827502  .00003321  00000-0  22660-3 0  9995,2 52298  53.2165  93.4835 0001311  91.8078 268.3065 15.08848210 57314,6917.855,95.437,540.627,538.813,0.0
52298.0,STARLINK-3760,PAYLOAD,2023-05-03 15:17:16,15.08838493,0.0001575,53.2166,92.5927,80.5178,279.5992,8.3181e-05,1.036e-05,0.0,0 STARLINK-3760,1 52298U 22041AP  23123.63700209  .00001036  00000-0  83181-4 0  9998,2 52298  53.2166  92.5927 0001575  80.5178 279.5992 15.08838493 58557,6917.885,95.438,540.84,538.66,0.0
52298.0,STARLINK-3760,PAYLOAD,2023-05-03 21:38:49,15.08832476,0.0001163,53.2161,91.4021,88.591,271.5215,-3.7649e-05,-8.87e-06,0.0,0 STARLINK-3760,1 52298U 22041AP  23123.90196260 -.00000887  00000-0 -37649-4 0  9997,2 52298  53.2161  91.4021 0001163  88.5910 271.5215 15.08832476 57385,6917.903,95.438,540.573,538.964,0.0
52298.0,STARLINK-3760,PAYLOAD,2023-05-04 04:00:21,15.08837991,0.0001221,53.2155,90.2117,91.6823,268.4309,4.7768e-05,4.72e-06,0.0,0 STARLINK-3760,1 52298U 22041AP  23124.16692112  .00000472  00000-0  47768-4 0  9994,2 52298  53.2155  90.2117 0001221  91.6823 268.4309 15.08837991 57425,6917.887,95.438,540.596,538.907,0.0
52298.0,STARLINK-3760,PAYLOAD,2023-05-05 07:01:55,15.08853667,0.0001153,53.2161,85.1571,87.3719,272.7405,0.00050144,7.704e-05,0.0,0 STARLINK-3760,1 52298U 22041AP  23125.29299827  .00007704  00000-0  50144-3 0  9991,2 52298  53.2161  85.1571 0001153  87.3719 272.7405 15.08853667 58805,6917.839,95.437,540.501,538.906,0.0
52298.0,STARLINK-3760,PAYLOAD,2023-05-05 21:20:23,15.0884699,0.000125,53.216,82.4813,85.5796,274.5339,0.00030707,4.603e-05,0.0,0 STARLINK-3760,1 52298U 22041AP  23125.88916093  .00004603  00000-0  30707-3 0  9995,2 52298  53.2160  82.4813 0001250  85.5796 274.5339 15.08846990 57688,6917.859,95.437,540.589,538.859,0.0
